[{"OBJECT_NAME":"EXPRESS-AT1","OBJECT_ID":"2014-010A","EPOCH":"2026-03-29T04:44:34.983168","MEAN_MOTION":1.00279358,"ECCENTRICITY":4.49e-5,"INCLINATION":0.0542,"RA_OF_ASC_NODE":83.7839,"ARG_OF_PERICENTER":1.1701,"MEAN_ANOMALY":229.1158,"EPHEMERIS_TYPE":0,"CLASSIFICATION_TYPE":"U","NORAD_CAT_ID":39612,"ELEMENT_SET_NO":999,"REV_AT_EPOCH":4401,"BSTAR":0,"MEAN_MOTION_DOT":5.6e-7,"MEAN_MOTION_DDOT":0},{"OBJECT_NAME":"EXPRESS-AT2","OBJECT_ID":"2014-010B","EPOCH":"2026-03-11T12:17:49.138656","MEAN_MOTION":1.0027155,"ECCENTRICITY":0.00013084,"INCLINATION":0.0166,"RA_OF_ASC_NODE":193.7113,"ARG_OF_PERICENTER":80.7943,"MEAN_ANOMALY":218.9521,"EPHEMERIS_TYPE":0,"CLASSIFICATION_TYPE":"U","NORAD_CAT_ID":39613,"ELEMENT_SET_NO":999,"REV_AT_EPOCH":4352,"BSTAR":0,"MEAN_MOTION_DOT":-2.8e-6,"MEAN_MOTION_DDOT":0},{"OBJECT_NAME":"BREEZE-M R/B","OBJECT_ID":"2014-010C","EPOCH":"2026-03-28T12:16:00.137280","MEAN_MOTION":0.90579836,"ECCENTRICITY":0.067136,"INCLINATION":10.7647,"RA_OF_ASC_NODE":59.9357,"ARG_OF_PERICENTER":50.1944,"MEAN_ANOMALY":315.5575,"EPHEMERIS_TYPE":0,"CLASSIFICATION_TYPE":"U","NORAD_CAT_ID":39614,"ELEMENT_SET_NO":999,"REV_AT_EPOCH":3977,"BSTAR":0,"MEAN_MOTION_DOT":-1.62e-6,"MEAN_MOTION_DDOT":0},{"OBJECT_NAME":"AMAZONAS 4A","OBJECT_ID":"2014-011A","EPOCH":"2026-03-29T04:07:31.035936","MEAN_MOTION":1.00272746,"ECCENTRICITY":0.0002156,"INCLINATION":0.0548,"RA_OF_ASC_NODE":168.2212,"ARG_OF_PERICENTER":193.6061,"MEAN_ANOMALY":172.6112,"EPHEMERIS_TYPE":0,"CLASSIFICATION_TYPE":"U","NORAD_CAT_ID":39616,"ELEMENT_SET_NO":999,"REV_AT_EPOCH":4391,"BSTAR":0,"MEAN_MOTION_DOT":-2.72e-6,"MEAN_MOTION_DDOT":0},{"OBJECT_NAME":"ASTRA 5B","OBJECT_ID":"2014-011B","EPOCH":"2026-03-29T01:09:50.800032","MEAN_MOTION":1.00269347,"ECCENTRICITY":0.0003625,"INCLINATION":0.0873,"RA_OF_ASC_NODE":299.9338,"ARG_OF_PERICENTER":41.6912,"MEAN_ANOMALY":245.7844,"EPHEMERIS_TYPE":0,"CLASSIFICATION_TYPE":"U","NORAD_CAT_ID":39617,"ELEMENT_SET_NO":999,"REV_AT_EPOCH":4386,"BSTAR":0,"MEAN_MOTION_DOT":1.17e-6,"MEAN_MOTION_DDOT":0},{"OBJECT_NAME":"IRNSS-1B","OBJECT_ID":"2014-017A","EPOCH":"2026-03-28T23:36:32.791104","MEAN_MOTION":1.00278971,"ECCENTRICITY":0.0021967,"INCLINATION":29.0674,"RA_OF_ASC_NODE":241.7738,"ARG_OF_PERICENTER":181.1999,"MEAN_ANOMALY":172.7168,"EPHEMERIS_TYPE":0,"CLASSIFICATION_TYPE":"U","NORAD_CAT_ID":39635,"ELEMENT_SET_NO":999,"REV_AT_EPOCH":4398,"BSTAR":0,"MEAN_MOTION_DOT":8.1e-7,"MEAN_MOTION_DDOT":0},{"OBJECT_NAME":"CTS DEB [ARRAY COVER]","OBJECT_ID":"1976-004E","EPOCH":"2026-03-29T00:29:24.679392","MEAN_MOTION":1.0031188,"ECCENTRICITY":0.0043067,"INCLINATION":3.4382,"RA_OF_ASC_NODE":267.5337,"ARG_OF_PERICENTER":170.2111,"MEAN_ANOMALY":357.4932,"EPHEMERIS_TYPE":0,"CLASSIFICATION_TYPE":"U","NORAD_CAT_ID":39688,"ELEMENT_SET_NO":999,"REV_AT_EPOCH":4197,"BSTAR":0,"MEAN_MOTION_DOT":-3.2e-7,"MEAN_MOTION_DDOT":0},{"OBJECT_NAME":"CTS DEB [ARRAY COVER]","OBJECT_ID":"1976-004F","EPOCH":"2026-03-28T10:54:07.536096","MEAN_MOTION":1.00273176,"ECCENTRICITY":0.0159991,"INCLINATION":3.4726,"RA_OF_ASC_NODE":268.3152,"ARG_OF_PERICENTER":68.6868,"MEAN_ANOMALY":292.6188,"EPHEMERIS_TYPE":0,"CLASSIFICATION_TYPE":"U","NORAD_CAT_ID":39689,"ELEMENT_SET_NO":999,"REV_AT_EPOCH":6608,"BSTAR":0,"MEAN_MOTION_DOT":-3.16e-6,"MEAN_MOTION_DDOT":0},{"OBJECT_NAME":"LUCH-5V","OBJECT_ID":"2014-023A","EPOCH":"2026-03-28T23:47:31.738848","MEAN_MOTION":1.00272014,"ECCENTRICITY":0.0002476,"INCLINATION":4.9365,"RA_OF_ASC_NODE":70.5253,"ARG_OF_PERICENTER":304.0122,"MEAN_ANOMALY":263.4836,"EPHEMERIS_TYPE":0,"CLASSIFICATION_TYPE":"U","NORAD_CAT_ID":39727,"ELEMENT_SET_NO":999,"REV_AT_EPOCH":4355,"BSTAR":0,"MEAN_MOTION_DOT":-2.84e-6,"MEAN_MOTION_DDOT":0},{"OBJECT_NAME":"KAZSAT-3","OBJECT_ID":"2014-023B","EPOCH":"2026-03-29T03:02:37.260960","MEAN_MOTION":1.00271114,"ECCENTRICITY":2.13e-5,"INCLINATION":0.0487,"RA_OF_ASC_NODE":42.328,"ARG_OF_PERICENTER":58.8839,"MEAN_ANOMALY":189.4533,"EPHEMERIS_TYPE":0,"CLASSIFICATION_TYPE":"U","NORAD_CAT_ID":39728,"ELEMENT_SET_NO":999,"REV_AT_EPOCH":4165,"BSTAR":0,"MEAN_MOTION_DOT":4.1e-7,"MEAN_MOTION_DDOT":0},{"OBJECT_NAME":"BREEZE-M R/B","OBJECT_ID":"2014-023C","EPOCH":"2026-03-28T19:28:28.758144","MEAN_MOTION":0.92543868,"ECCENTRICITY":0.06452722,"INCLINATION":9.9212,"RA_OF_ASC_NODE":53.8479,"ARG_OF_PERICENTER":199.1314,"MEAN_ANOMALY":158.4114,"EPHEMERIS_TYPE":0,"CLASSIFICATION_TYPE":"U","NORAD_CAT_ID":39729,"ELEMENT_SET_NO":999,"REV_AT_EPOCH":4023,"BSTAR":0,"MEAN_MOTION_DOT":-1.78e-6,"MEAN_MOTION_DDOT":0},{"OBJECT_NAME":"EUTELSAT 3B","OBJECT_ID":"2014-030A","EPOCH":"2026-03-29T04:29:28.929696","MEAN_MOTION":1.00272622,"ECCENTRICITY":2.84e-5,"INCLINATION":0.0644,"RA_OF_ASC_NODE":10.0859,"ARG_OF_PERICENTER":43.8403,"MEAN_ANOMALY":203.1139,"EPHEMERIS_TYPE":0,"CLASSIFICATION_TYPE":"U","NORAD_CAT_ID":39773,"ELEMENT_SET_NO":999,"REV_AT_EPOCH":4326,"BSTAR":0,"MEAN_MOTION_DOT":1.0e-8,"MEAN_MOTION_DDOT":0},{"OBJECT_NAME":"MSG 1 DEB [BAFFLE COVER]","OBJECT_ID":"2002-040F","EPOCH":"2026-03-22T06:45:21.300192","MEAN_MOTION":1.01968882,"ECCENTRICITY":0.00907549,"INCLINATION":12.1131,"RA_OF_ASC_NODE":14.7986,"ARG_OF_PERICENTER":105.725,"MEAN_ANOMALY":79.8316,"EPHEMERIS_TYPE":0,"CLASSIFICATION_TYPE":"U","NORAD_CAT_ID":39999,"ELEMENT_SET_NO":999,"REV_AT_EPOCH":4120,"BSTAR":0,"MEAN_MOTION_DOT":-2.18e-6,"MEAN_MOTION_DDOT":0},{"OBJECT_NAME":"FENGYUN 2C DEB","OBJECT_ID":"2004-042D","EPOCH":"2026-03-21T10:29:12.087744","MEAN_MOTION":1.00297433,"ECCENTRICITY":0.0198751,"INCLINATION":12.6402,"RA_OF_ASC_NODE":20.3576,"ARG_OF_PERICENTER":71.1279,"MEAN_ANOMALY":290.9952,"EPHEMERIS_TYPE":0,"CLASSIFICATION_TYPE":"U","NORAD_CAT_ID":40000,"ELEMENT_SET_NO":999,"REV_AT_EPOCH":1170,"BSTAR":0,"MEAN_MOTION_DOT":7.2e-7,"MEAN_MOTION_DDOT":0},{"OBJECT_NAME":"ASIASAT 8 (AMOS-7)","OBJECT_ID":"2014-046A","EPOCH":"2026-03-29T01:33:11.064096","MEAN_MOTION":1.00273722,"ECCENTRICITY":0.0001565,"INCLINATION":0.0323,"RA_OF_ASC_NODE":95.0223,"ARG_OF_PERICENTER":252.0955,"MEAN_ANOMALY":327.9428,"EPHEMERIS_TYPE":0,"CLASSIFICATION_TYPE":"U","NORAD_CAT_ID":40107,"ELEMENT_SET_NO":999,"REV_AT_EPOCH":10134,"BSTAR":0,"MEAN_MOTION_DOT":-3.52e-6,"MEAN_MOTION_DDOT":0},{"OBJECT_NAME":"ASIASAT 6","OBJECT_ID":"2014-052A","EPOCH":"2026-03-27T13:41:09.213792","MEAN_MOTION":1.00267765,"ECCENTRICITY":9.68e-5,"INCLINATION":0.0325,"RA_OF_ASC_NODE":262.1957,"ARG_OF_PERICENTER":121.7203,"MEAN_ANOMALY":126.2328,"EPHEMERIS_TYPE":0,"CLASSIFICATION_TYPE":"U","NORAD_CAT_ID":40141,"ELEMENT_SET_NO":999,"REV_AT_EPOCH":4226,"BSTAR":0,"MEAN_MOTION_DOT":-3.81e-6,"MEAN_MOTION_DDOT":0},{"OBJECT_NAME":"OPTUS 10","OBJECT_ID":"2014-054A","EPOCH":"2026-03-28T20:39:39.290688","MEAN_MOTION":1.0027163,"ECCENTRICITY":0.0001813,"INCLINATION":0.0442,"RA_OF_ASC_NODE":290.7962,"ARG_OF_PERICENTER":76.8138,"MEAN_ANOMALY":284.5746,"EPHEMERIS_TYPE":0,"CLASSIFICATION_TYPE":"U","NORAD_CAT_ID":40146,"ELEMENT_SET_NO":999,"REV_AT_EPOCH":4222,"BSTAR":0,"MEAN_MOTION_DOT":-1.67e-6,"MEAN_MOTION_DDOT":0}]
