EXPRESS-AT1             
1 39612U 14010A   26088.19762712  .00000056  00000+0  00000+0 0  9995
2 39612   0.0542  83.7839 0000449   1.1701 229.1158  1.00279358 44011
EXPRESS-AT2             
1 39613U 14010B   26070.51237429 -.00000280  00000+0  00000+0 0  9995
2 39613   0.0166 193.7113 0001308  80.7943 218.9521  1.00271550 43528
BREEZE-M R/B            
1 39614U 14010C   26087.51111270 -.00000162  00000+0  00000+0 0  9998
2 39614  10.7647  59.9357 0671360  50.1944 315.5575  0.90579836 39778
AMAZONAS 4A             
1 39616U 14011A   26088.17188699 -.00000272  00000+0  00000+0 0  9995
2 39616   0.0548 168.2212 0002156 193.6061 172.6112  1.00272746 43912
ASTRA 5B                
1 39617U 14011B   26088.04850463  .00000117  00000+0  00000+0 0  9994
2 39617   0.0873 299.9338 0003625  41.6912 245.7844  1.00269347 43865
IRNSS-1B                
1 39635U 14017A   26087.98371286  .00000081  00000+0  00000+0 0  9993
2 39635  29.0674 241.7738 0021967 181.1999 172.7168  1.00278971 43982
CTS DEB [ARRAY COVER]   
1 39688U 76004E   26088.02042453 -.00000032  00000+0  00000+0 0  9999
2 39688   3.4382 267.5337 0043067 170.2111 357.4932  1.00311880 41978
CTS DEB [ARRAY COVER]   
1 39689U 76004F   26087.45425389 -.00000316  00000+0  00000+0 0  9994
2 39689   3.4726 268.3152 0159991  68.6868 292.6188  1.00273176 66085
LUCH-5V                 
1 39727U 14023A   26087.99133957 -.00000284  00000+0  00000+0 0  9990
2 39727   4.9365  70.5253 0002476 304.0122 263.4836  1.00272014 43556
KAZSAT-3                
1 39728U 14023B   26088.12682015  .00000041  00000+0  00000+0 0  9991
2 39728   0.0487  42.3280 0000213  58.8839 189.4533  1.00271114 41652
BREEZE-M R/B            
1 39729U 14023C   26087.81144396 -.00000178  00000+0  00000+0 0  9994
2 39729   9.9212  53.8479 0645272 199.1314 158.4114  0.92543868 40233
EUTELSAT 3B             
1 39773U 14030A   26088.18714039  .00000001  00000+0  00000+0 0  9993
2 39773   0.0644  10.0859 0000284  43.8403 203.1139  1.00272622 43260
MSG 1 DEB [BAFFLE COVER]
1 39999U 02040F   26081.28149653 -.00000218  00000+0  00000+0 0  9990
2 39999  12.1131  14.7986 0090754 105.7250  79.8316  1.01968882 41204
FENGYUN 2C DEB          
1 40000U 04042D   26080.43694546  .00000072  00000+0  00000+0 0  9998
2 40000  12.6402  20.3576 0198751  71.1279 290.9952  1.00297433 11706
ASIASAT 8 (AMOS-7)      
1 40107U 14046A   26088.06471139 -.00000352  00000+0  00000+0 0  9991
2 40107   0.0323  95.0223 0001565 252.0955 327.9428  1.00273722101346
ASIASAT 6               
1 40141U 14052A   26086.57024553 -.00000381  00000+0  00000+0 0  9996
2 40141   0.0325 262.1957 0000968 121.7203 126.2328  1.00267765 42265
OPTUS 10                
1 40146U 14054A   26087.86087142 -.00000167  00000+0  00000+0 0  9991
2 40146   0.0442 290.7962 0001813  76.8138 284.5746  1.00271630 42224
